NORAD_CAT_ID,OBJECT_NAME,OBJECT_TYPE,EPOCH,MEAN_MOTION,ECCENTRICITY,INCLINATION,RA_OF_ASC_NODE,ARG_OF_PERICENTER,MEAN_ANOMALY,BSTAR,MEAN_MOTION_DOT,MEAN_MOTION_DDOT,TLE_LINE0,TLE_LINE1,TLE_LINE2,SEMIMAJOR_AXIS,PERIOD,APOGEE,PERIGEE,DECAYED
53573.0,STARLINK-4547,PAYLOAD,2023-08-14 10:32:29,15.08841473,0.0001057,53.2161,305.9207,82.8516,277.2596,9.337e-05,1.199e-05,0.0,0 STARLINK-4547,1 53573U 22101AY  23226.43923198  .00001199  00000-0  93370-4 0  9999,2 53573  53.2161 305.9207 0001057  82.8516 277.2596 15.08841473 54808,6917.876,95.437,540.472,539.01,0.0
53573.0,STARLINK-4547,PAYLOAD,2023-08-15 21:30:58,15.0884741,0.000111,53.2165,299.3801,64.3401,295.7706,0.00019568,2.828e-05,0.0,0 STARLINK-4547,1 53573U 22101AY  23227.89650908  .00002828  00000-0  19568-3 0  9992,2 53573  53.2165 299.3801 0001110  64.3401 295.7706 15.08847410 55026,6917.858,95.437,540.491,538.955,0.0
53573.0,STARLINK-4547,PAYLOAD,2023-08-16 10:14:03,15.08838335,0.0001108,53.2162,296.9999,75.4648,284.6467,6.1088e-05,6.85e-06,0.0,0 STARLINK-4547,1 53573U 22101AY  23228.42643433  .00000685  00000-0  61088-4 0  9991,2 53573  53.2162 296.9999 0001108  75.4648 284.6467 15.08838335 55103,6917.885,95.438,540.517,538.984,0.0
53573.0,STARLINK-4547,PAYLOAD,2023-08-17 13:15:36,15.088505,0.0001234,53.2156,291.9438,91.1129,269.0004,5.4627e-05,5.82e-06,0.0,0 STARLINK-4547,1 53573U 22101AY  23229.55250770  .00000582  00000-0  54627-4 0  9991,2 53573  53.2156 291.9438 0001234  91.1129 269.0004 15.08850500 55278,6917.848,95.437,540.567,538.86,0.0
53573.0,STARLINK-4547,PAYLOAD,2023-08-17 22:47:56,15.08836284,0.0001177,53.216,290.1609,90.9949,269.1178,9.4951e-05,1.223e-05,0.0,0 STARLINK-4547,1 53573U 22101AY  23229.94995547  .00001223  00000-0  94951-4 0  9999,2 53573  53.2160 290.1609 0001177  90.9949 269.1178 15.08836284 55330,6917.892,95.438,540.571,538.943,0.0
53573.0,STARLINK-4547,PAYLOAD,2023-08-19 09:46:24,15.08847466,0.0001173,53.2148,283.6186,87.2717,272.841,0.00023451,3.447e-05,0.0,0 STARLINK-4547,1 53573U 22101AY  23231.40723291  .00003447  00000-0  23451-3 0  9994,2 53573  53.2148 283.6186 0001173  87.2717 272.8410 15.08847466 55559,6917.858,95.437,540.534,538.911,0.0
53573.0,STARLINK-4547,PAYLOAD,2023-08-20 03:15:39,15.08836997,0.0001087,53.2147,280.3466,96.0366,264.075,7.867e-05,9.64e-06,0.0,0 STARLINK-4547,1 53573U 22101AY  23232.13587719  .00000964  00000-0  78670-4 0  9993,2 53573  53.2147 280.3466 0001087  96.0366 264.0750 15.08836997 55664,6917.89,95.438,540.507,539.003,0.0
53573.0,STARLINK-4547,PAYLOAD,2023-08-21 09:27:59,15.08847128,0.0001178,53.2148,274.696,95.3029,264.8098,7.7165e-05,9.41e-06,0.0,0 STARLINK-4547,1 53573U 22101AY  23233.39443475  .00000941  00000-0  77165-4 0  9995,2 53573  53.2148 274.6960 0001178  95.3029 264.8098 15.08847128 55851,6917.859,95.437,540.539,538.909,0.0
53573.0,STARLINK-4547,PAYLOAD,2023-08-22 02:57:14,15.08838702,0.0001314,53.2144,271.4254,90.1377,269.9766,0.00017439,2.489e-05,0.0,0 STARLINK-4547,1 53573U 22101AY  23234.12308043  .00002489  00000-0  17439-3 0  9994,2 53573  53.2144 271.4254 0001314  90.1377 269.9766 15.08838702 55967,6917.884,95.438,540.658,538.84,0.0
53573.0,STARLINK-4547,PAYLOAD,2023-08-24 07:24:58,15.08836103,0.0001384,53.2166,261.6126,98.7406,261.3743,6.1978e-05,6.98e-06,0.0,0 STARLINK-4547,1 53573U 22101AY  23236.30900521  .00000698  00000-0  61978-4 0  9993,2 53573  53.2166 261.6126 0001384  98.7406 261.3743 15.08836103 56295,6917.892,95.438,540.715,538.8,0.0
53573.0,STARLINK-4547,PAYLOAD,2023-08-25 08:51:08,15.08841844,0.0001291,53.2159,256.8539,91.9018,268.2122,9.3788e-05,1.205e-05,0.0,0 STARLINK-4547,1 53573U 22101AY  23237.36884260  .00001205  00000-0  93788-4 0  9990,2 53573  53.2159 256.8539 0001291  91.9018 268.2122 15.08841844 56455,6917.875,95.437,540.633,538.847,0.0
53573.0,STARLINK-4547,PAYLOAD,2023-08-26 08:41:55,15.08842433,0.0001355,53.2163,252.3933,90.1145,270.0002,0.0001354,1.868e-05,0.0,0 STARLINK-4547,1 53573U 22101AY  23238.36244282  .00001868  00000-0  13540-3 0  9997,2 53573  53.2163 252.3933 0001355  90.1145 270.0002 15.08842433 56602,6917.873,95.437,540.675,538.801,0.0
53573.0,STARLINK-4547,PAYLOAD,2023-08-27 00:35:46,15.08840558,0.0001419,53.2166,249.4196,87.6274,272.488,6.2484e-05,7.07e-06,0.0,0 STARLINK-4547,1 53573U 22101AY  23239.02484655  .00000707  00000-0  62484-4 0  9994,2 53573  53.2166 249.4196 0001419  87.6274 272.4880 15.08840558 56705,6917.879,95.438,540.725,538.762,0.0
53573.0,STARLINK-4547,PAYLOAD,2023-08-27 05:21:56,15.08841323,0.0001424,53.2166,248.5275,87.7256,272.39,6.4504e-05,7.39e-06,0.0,0 STARLINK-4547,1 53573U 22101AY  23239.22356601  .00000739  00000-0  64504-4 0  9995,2 53573  53.2166 248.5275 0001424  87.7256 272.3900 15.08841323 56736,6917.876,95.437,540.726,538.756,0.0
53573.0,STARLINK-4547,PAYLOAD,2023-08-28 06:48:06,15.08843836,0.0001391,53.2163,243.7698,91.9617,268.1534,7.5556e-05,9.15e-06,0.0,0 STARLINK-4547,1 53573U 22101AY  23240.28340290  .00000915  00000-0  75556-4 0  9995,2 53573  53.2163 243.7698 0001391  91.9617 268.1534 15.08843836 56894,6917.869,95.437,540.696,538.771,0.0
53573.0,STARLINK-4547,PAYLOAD,2023-08-28 17:55:48,15.08841331,0.0001372,53.2163,241.6882,90.6452,269.4698,8.7208e-05,1.1e-05,0.0,0 STARLINK-4547,1 53573U 22101AY  23240.74708367  .00001100  00000-0  87208-4 0  9993,2 53573  53.2163 241.6882 0001372  90.6452 269.4698 15.08841331 56969,6917.876,95.437,540.69,538.792,0.0
53573.0,STARLINK-4547,PAYLOAD,2023-08-29 09:49:39,15.08842412,0.0001452,53.2169,238.7148,93.7729,266.3429,8.8247e-05,1.117e-05,0.0,0 STARLINK-4547,1 53573U 22101AY  23241.40948297  .00001117  00000-0  88247-4 0  9997,2 53573  53.2169 238.7148 0001452  93.7729 266.3429 15.08842412 57068,6917.873,95.437,540.742,538.734,0.0
53573.0,STARLINK-4547,PAYLOAD,2023-08-30 06:29:40,15.08837146,0.0001461,53.2167,234.8483,94.5282,265.5877,1.3135e-05,-7.9e-07,0.0,0 STARLINK-4547,1 53573U 22101AY  23242.27060902 -.00000079  00000-0  13135-4 0  9992,2 53573  53.2167 234.8483 0001461  94.5282 265.5877 15.08837146 57198,6917.889,95.438,540.765,538.743,0.0
53573.0,STARLINK-4547,PAYLOAD,2023-08-31 06:20:27,15.08837588,0.0001376,53.2159,230.388,93.3152,266.7997,5.3286e-05,5.6e-06,0.0,0 STARLINK-4547,1 53573U 22101AY  23243.26421002  .00000560  00000-0  53286-4 0  9999,2 53573  53.2159 230.3880 0001376  93.3152 266.7997 15.08837588 57342,6917.888,95.438,540.705,538.801,0.0
53573.0,STARLINK-4547,PAYLOAD,2023-08-31 23:49:42,15.08835013,0.0001345,53.2158,227.1182,99.759,260.3554,5.7626e-05,6.29e-06,0.0,0 STARLINK-4547,1 53573U 22101AY  23243.99285366  .00000629  00000-0  57626-4 0  9998,2 53573  53.2158 227.1182 0001345  99.7590 260.3554 15.08835013 57454,6917.896,95.438,540.691,538.83,0.0
53573.0,STARLINK-4547,PAYLOAD,2023-09-01 07:46:38,15.08838884,0.0001343,53.2158,225.6307,95.8697,264.2449,8.7351e-05,1.103e-05,0.0,0 STARLINK-4547,1 53573U 22101AY  23244.32405181  .00001103  00000-0  87351-4 0  9991,2 53573  53.2158 225.6307 0001343  95.8697 264.2449 15.08838884 57500,6917.884,95.438,540.678,538.82,0.0
53573.0,STARLINK-4547,PAYLOAD,2023-09-01 15:43:33,15.08840056,0.0001317,53.2161,224.1436,92.7152,267.3991,0.00010395,1.367e-05,0.0,0 STARLINK-4547,1 53573U 22101AY  23244.65525121  .00001367  00000-0  10395-3 0  9999,2 53573  53.2161 224.1436 0001317  92.7152 267.3991 15.08840056 57559,6917.88,95.438,540.656,538.834,0.0
53573.0,STARLINK-4547,PAYLOAD,2023-09-02 07:37:24,15.08844506,0.000127,53.2169,221.1698,88.7953,271.3185,0.00011248,1.503e-05,0.0,0 STARLINK-4547,1 53573U 22101AY  23245.31764842  .00001503  00000-0  11248-3 0  9998,2 53573  53.2169 221.1698 0001270  88.7953 271.3185 15.08844506 57651,6917.867,95.437,540.61,538.853,0.0
53573.0,STARLINK-4547,PAYLOAD,2023-09-02 15:34:20,15.08841423,0.0001263,53.217,219.6828,85.9937,274.12,9.9861e-05,1.302e-05,0.0,0 STARLINK-4547,1 53573U 22101AY  23245.64885072  .00001302  00000-0  99861-4 0  9998,2 53573  53.2170 219.6828 0001263  85.9937 274.1200 15.08841423 57703,6917.876,95.437,540.615,538.867,0.0
53573.0,STARLINK-4547,PAYLOAD,2023-09-02 23:31:16,15.088396,0.0001299,53.2172,218.196,86.7451,273.369,3.6386e-05,2.91e-06,0.0,0 STARLINK-4547,1 53573U 22101AY  23245.98005360  .00000291  00000-0  36386-4 0  9998,2 53573  53.2172 218.1960 0001299  86.7451 273.3690 15.08839600 57758,6917.882,95.438,540.645,538.848,0.0
53573.0,STARLINK-4547,PAYLOAD,2023-09-03 07:28:11,15.088496,0.0001451,53.216,216.7093,86.6535,273.4623,0.00011198,1.495e-05,0.0,0 STARLINK-4547,1 53573U 22101AY  23246.31124566  .00001495  00000-0  11198-3 0  9996,2 53573  53.2160 216.7093 0001451  86.6535 273.4623 15.08849600 57802,6917.851,95.437,540.72,538.712,0.0
53573.0,STARLINK-4547,PAYLOAD,2023-09-03 15:25:07,15.08839349,0.0001415,53.2174,215.2221,90.9984,269.117,2.6469e-05,1.33e-06,0.0,0 STARLINK-4547,1 53573U 22101AY  23246.64245342  .00000133  00000-0  26469-4 0  9994,2 53573  53.2174 215.2221 0001415  90.9984 269.1170 15.08839349 57853,6917.882,95.438,540.726,538.768,0.0
53573.0,STARLINK-4547,PAYLOAD,2023-09-04 04:08:13,15.08836134,0.0001461,53.2171,212.8419,97.3388,262.777,-3.2315e-05,-8.02e-06,0.0,0 STARLINK-4547,1 53573U 22101AY  23247.17237755 -.00000802  00000-0 -32315-4 0  9994,2 53573  53.2171 212.8419 0001461  97.3388 262.7770 15.08836134 57935,6917.892,95.438,540.768,538.747,0.0
53573.0,STARLINK-4547,PAYLOAD,2023-09-04 16:51:18,15.08837247,0.0001517,53.2163,210.4643,94.2261,265.8904,2.8543e-05,1.66e-06,0.0,0 STARLINK-4547,1 53573U 22101AY  23247.70229597  .00000166  00000-0  28543-4 0  9997,2 53573  53.2163 210.4643 0001517  94.2261 265.8904 15.08837247 58016,6917.889,95.438,540.803,538.704,0.0
53573.0,STARLINK-4547,PAYLOAD,2023-09-05 03:59:00,15.08839029,0.0001496,53.2164,208.3829,94.5631,265.5532,5.8048e-05,6.36e-06,0.0,0 STARLINK-4547,1 53573U 22101AY  23248.16597481  .00000636  00000-0  58048-4 0  9993,2 53573  53.2164 208.3829 0001496  94.5631 265.5532 15.08839029 58080,6917.883,95.438,540.783,538.713,0.0
